[{"OBJECT_NAME":"STARLINK-30444","OBJECT_ID":"2023-144H","EPOCH":"2026-03-09T22:21:59.992704","MEAN_MOTION":15.26756947,"ECCENTRICITY":0.00014404,"INCLINATION":43.001,"RA_OF_ASC_NODE":283.9041,"ARG_OF_PERICENTER":293.3317,"MEAN_ANOMALY":66.7382,"EPHEMERIS_TYPE":0,"CLASSIFICATION_TYPE":"U","NORAD_CAT_ID":57871,"ELEMENT_SET_NO":999,"REV_AT_EPOCH":13739,"BSTAR":0.00088529743,"MEAN_MOTION_DOT":0.00023575,"MEAN_MOTION_DDOT":0},{"OBJECT_NAME":"OBJECT H","OBJECT_ID":"2026-023H","EPOCH":"2026-03-09T17:12:47.154816","MEAN_MOTION":15.23139098,"ECCENTRICITY":0.00239537,"INCLINATION":96.639,"RA_OF_ASC_NODE":144.1723,"ARG_OF_PERICENTER":117.6533,"MEAN_ANOMALY":242.7142,"EPHEMERIS_TYPE":0,"CLASSIFICATION_TYPE":"U","NORAD_CAT_ID":67681,"ELEMENT_SET_NO":999,"REV_AT_EPOCH":484,"BSTAR":0.00052586846,"MEAN_MOTION_DOT":0.00012465,"MEAN_MOTION_DDOT":0}]
